ARIANE 5 R/B            
1 28499U 04049H   26050.03878470  .00000783  00000+0  92656-4 0  9998
2 28499  98.2595 217.8017 0085160  52.1175 308.7702 14.85227616143028
CZ-2D R/B               
1 28738U 05024B   26050.03395560  .00034562  00000+0  45378-3 0  9992
2 28738  97.3603  64.5209 0007622  91.2238 268.9891 15.58423060136878
ALOS (DAICHI)           
1 28931U 06002A   26049.84943666  .00001350  00000+0  23480-3 0  9996
2 28931  98.1189   5.9044 0001691  56.0917 304.0449 14.69744193 70715
H-2A R/B                
1 28932U 06002B   26049.99839830  .00007290  00000+0  37061-3 0  9999
2 28932  98.2378 195.4257 0052152 305.5590  54.0784 15.16011371 91608
RESURS-DK 1             
1 29228U 06021A   26050.08608281  .00001852  00000+0  11189-3 0  9996
2 29228  69.9323 285.1457 0003368 186.4773 173.6350 15.12628493 84711
CZ-4B R/B               
1 29507U 06046C   26050.07156621  .00004509  00000+0  23068-3 0  9999
2 29507  97.5628  95.0292 0032629 334.6434  25.3196 15.16695156 57225
CZ-2C R/B               
1 31114U 07010B   26050.26793411  .00000106  00000+0  67861-4 0  9992
2 31114  98.3971 164.4711 0058639 348.9196  11.0686 14.20239309977103
COSMO-SKYMED 1          
1 31598U 07023A   26050.27635270  .00003759  00000+0  33709-3 0  9991
2 31598  97.8864 241.1627 0001460  91.4738 268.6650 14.96384256 12156
COSMOS 2428             
1 31792U 07029A   26050.26956786  .00000194  00000+0  12961-3 0  9997
2 31792  70.9399 242.0087 0008030 297.3665  62.6638 14.12939419961496
SL-16 R/B               
1 31793U 07029B   26049.98429256 -.00000035  00000+0  68712-5 0  9994
2 31793  70.9747 211.7021 0002375 281.8901 215.0257 14.14836626962728
KORONAS-FOTON           
1 33504U 09003A   26050.08801562  .00011711  00000+0  26608-3 0  9995
2 33504  82.4305 295.2105 0009540 216.9174 143.1417 15.42820823942877
CZ-2C R/B               
1 37731U 11030B   26049.90030048  .00001447  00000+0  18838-3 0  9997
2 37731  97.8515   7.5454 0053947  52.4409  14.6084 14.81143099787314
H-2A R/B                
1 38341U 12025E   26050.18993281  .00003963  00000+0  36141-3 0  9991
2 38341  98.4709  15.7630 0045207  15.5205 344.7388 14.94998693745450
SHIJIAN-16 (SJ-16)      
1 39358U 13057A   26050.25977619  .00001164  00000+0  11666-3 0  9997
2 39358  74.9701 219.9747 0016314 159.2674 200.9180 14.92266318668750
SL-4 R/B                
1 39679U 14021B   26049.40593810  .00013071  00000+0  29548-3 0  9995
2 39679  51.6060  71.3036 0098825  32.6899 328.0149 15.38504324653302
ALOS-2                  
1 39766U 14029A   26050.25512640  .00000124  00000+0  23501-4 0  9996
2 39766  97.9211 149.1183 0001587 101.2757 258.8634 14.79464360634141
YAOGAN-29               
1 41038U 15069A   26050.23949463  .00000986  00000+0  12810-3 0  9997
2 41038  98.0160  78.6177 0002771  67.3938 292.7569 14.82975283553148
ASTRO-H (HITOMI)        
1 41337U 16012A   26050.25667469  .00003022  00000+0  17633-3 0  9995
2 41337  30.9991 115.4860 0009819 147.7715 212.3525 15.09864084549446
HXMT (HUIYAN)           
1 42758U 17034A   26050.27990424  .00005180  00000+0  26454-3 0  9998
2 42758  43.0142 119.0045 0030651 119.3760 241.0155 15.17220793479740
CZ-2C R/B               
1 43521U 18054D   26050.23504042  .00633149  19458-3  78530-3 0  9998
2 43521  35.1269  68.4041 0011485 134.0341 226.1350 16.06597890425934
SAOCOM 1A               
1 43641U 18076A   26050.26261877  .00000062  00000+0  14409-4 0  9991
2 43641  97.8870 238.6954 0001311  80.6995 279.4367 14.82144879398634
H-2A R/B                
1 43682U 18084L   26050.09573428  .00017240  00000+0  42223-3 0  9994
2 43682  98.8743 263.5218 0026338  87.7499 272.6758 15.40497212402915
SAOCOM 1B               
1 46265U 20059A   26050.29387262  .00000560  00000+0  76865-4 0  9997
2 46265  97.8870 237.8244 0001519  84.0175 276.1211 14.82151647296023
CSS (TIANHE)            
1 48274U 21035A   26050.21688436  .00024817  00000+0  30290-3 0  9995
2 48274  41.4677 320.4938 0004452 142.8604 217.2543 15.59868728274720
COSMOS 2550             
1 48865U 21056A   26050.12879469 -.00000074  00000+0  35940-5 0  9991
2 48865  67.1418  97.0767 0008400 269.9488  90.0704 15.33830894260613
CZ-2C R/B               
1 52794U 22058K   26050.05196936  .00027751  00000+0  42810-3 0  9995
2 52794  50.1886  54.0593 0042112 121.4390 239.0708 15.52866030207232
CZ-2C R/B               
1 54039U 22132E   26049.97303383  .00037042  00000+0  45166-3 0  9998
2 54039  97.2956  52.7482 0019859 152.3349 207.8969 15.60157262187459
GSLV R/B                
1 54149U 22138AN  26050.26771215  .00003503  00000+0  30388-3 0  9998
2 54149  87.3879 172.5262 0020359 213.1874 146.8082 14.96626381181170
XRISM                   
1 57800U 23137A   26050.28076249  .00005071  00000+0  28833-3 0  9996
2 57800  31.0030  42.7068 0008310 215.7994 144.2088 15.11259654135000
ACS3                    
1 59588U 24077B   26050.27515114  .00021985  00000+0  18012-1 0  9991
2 59588  97.2179 355.5278 0048769 130.3905 230.1530 13.88801504 91644
SZ-21 MODULE            
1 66515U 25246C   26050.09062311  .00030016  00000+0  27526-3 0  9991
2 66515  41.4761 317.7232 0001783 298.3543  61.7118 15.67079513 15156
